STARLINK-2508           
1 48456U 21040AE  21253.91667824 -.00043974  00000-0 -29507-2 0  9994
2 48456  53.0546 347.3358 0000878 100.0622 148.8559 15.06411667  3571
STARLINK-2698           
1 48458U 21040AG  21253.91667824 -.00032367  00000-0 -21633-2 0  9992
2 48458  53.0518 352.3240 0001382  94.0839 132.4414 15.06410200  3572
STARLINK-2579           
1 48459U 21040AH  21253.91667824 -.00033859  00000-0 -22642-2 0  9991
2 48459  53.0558 352.3264 0001136 129.7243 276.8007 15.06413675  3586
STARLINK-2582           
1 48460U 21040AJ  21253.91667824 -.00030590  00000-0 -20431-2 0  9996
2 48460  53.0558 352.3253 0001129 122.7334 358.6244 15.06408306  3589
STARLINK-2693           
1 48461U 21040AK  21253.91667824 -.00050565  00000-0 -33993-2 0  9998
2 48461  53.0554 352.3232 0000863 117.2218 284.1956 15.06407751  3561
STARLINK-2683           
1 48462U 21040AL  21253.91667824 -.00038446  00000-0 -25744-2 0  9998
2 48462  53.0433 357.3759 0001128 145.7905 133.2510 15.06424720  3566
STARLINK-2689           
1 48463U 21040AM  21253.91667824 -.00027662  00000-0 -18445-2 0  9997
2 48463  53.0563 357.3274 0001039 120.1763 338.8559 15.06417945  3560
STARLINK-2686           
1 48464U 21040AN  21254.25001157  .00027783  00000-0  18771-2 0  9991
2 48464  53.0556 355.8301 0001435 153.2447  69.3339 15.06392247 20527
STARLINK-2681           
1 48465U 21040AP  21253.91667824 -.00027704  00000-0 -18477-2 0  9991
2 48465  53.0544 357.3206 0001245 126.6409  27.2526 15.06410137  3562
STARLINK-2687           
1 48466U 21040AQ  21253.91667824 -.00031689  00000-0 -21171-2 0  9994
2 48466  53.0672 357.2794 0001153 145.2914  88.5955 15.06416138  3565
STARLINK-2659           
1 48467U 21040AR  21253.91667824 -.00028354  00000-0 -18917-2 0  9994
2 48467  53.0561 357.3267 0001144 117.6727 336.1674 15.06410170  3586
STARLINK-2685           
1 48468U 21040AS  21253.91667824 -.00029265  00000-0 -19534-2 0  9993
2 48468  53.0548 357.3232 0000907 127.7170  66.0960 15.06409877  3561
STARLINK-2661           
1 48469U 21040AT  21253.91667824 -.00027055  00000-0 -18034-2 0  9993
2 48469  53.0567 357.3305 0000907 126.4495 347.4560 15.06419008  3659
STARLINK-2675           
1 48470U 21040AU  21253.91667824 -.00027620  00000-0 -18424-2 0  9996
2 48470  53.0554 357.3249 0000814 143.1119 350.7923 15.06403761  3569
STARLINK-2684           
1 48471U 21040AV  21253.91667824 -.00029493  00000-0 -19691-2 0  9994
2 48471  53.0557 357.3296 0001110 118.4759  55.4246 15.06403661  3566
STARLINK-2722           
1 48472U 21040AW  21253.91667824 -.00070122  00000-0 -47335-2 0  9996
2 48472  53.0421 357.3783 0001261 122.2143 151.7539 15.06413745  3575
