[{"OBJECT_NAME":"STARLINK-2508","OBJECT_ID":"2021-040AE","EPOCH":"2021-09-10T22:00:00.999936","MEAN_MOTION":15.06411667,"ECCENTRICITY":8.78e-5,"INCLINATION":53.0546,"RA_OF_ASC_NODE":347.3358,"ARG_OF_PERICENTER":100.0622,"MEAN_ANOMALY":148.8559,"EPHEMERIS_TYPE":0,"CLASSIFICATION_TYPE":"U","NORAD_CAT_ID":48456,"ELEMENT_SET_NO":999,"REV_AT_EPOCH":357,"BSTAR":-0.0029507,"MEAN_MOTION_DOT":-0.00043974,"MEAN_MOTION_DDOT":0},{"OBJECT_NAME":"STARLINK-2698","OBJECT_ID":"2021-040AG","EPOCH":"2021-09-10T22:00:00.999936","MEAN_MOTION":15.064102,"ECCENTRICITY":0.0001382,"INCLINATION":53.0518,"RA_OF_ASC_NODE":352.324,"ARG_OF_PERICENTER":94.0839,"MEAN_ANOMALY":132.4414,"EPHEMERIS_TYPE":0,"CLASSIFICATION_TYPE":"U","NORAD_CAT_ID":48458,"ELEMENT_SET_NO":999,"REV_AT_EPOCH":357,"BSTAR":-0.0021633,"MEAN_MOTION_DOT":-0.00032367,"MEAN_MOTION_DDOT":0},{"OBJECT_NAME":"STARLINK-2579","OBJECT_ID":"2021-040AH","EPOCH":"2021-09-10T22:00:00.999936","MEAN_MOTION":15.06413675,"ECCENTRICITY":0.0001136,"INCLINATION":53.0558,"RA_OF_ASC_NODE":352.3264,"ARG_OF_PERICENTER":129.7243,"MEAN_ANOMALY":276.8007,"EPHEMERIS_TYPE":0,"CLASSIFICATION_TYPE":"U","NORAD_CAT_ID":48459,"ELEMENT_SET_NO":999,"REV_AT_EPOCH":358,"BSTAR":-0.0022642,"MEAN_MOTION_DOT":-0.00033859,"MEAN_MOTION_DDOT":0},{"OBJECT_NAME":"STARLINK-2582","OBJECT_ID":"2021-040AJ","EPOCH":"2021-09-10T22:00:00.999936","MEAN_MOTION":15.06408306,"ECCENTRICITY":0.0001129,"INCLINATION":53.0558,"RA_OF_ASC_NODE":352.3253,"ARG_OF_PERICENTER":122.7334,"MEAN_ANOMALY":358.6244,"EPHEMERIS_TYPE":0,"CLASSIFICATION_TYPE":"U","NORAD_CAT_ID":48460,"ELEMENT_SET_NO":999,"REV_AT_EPOCH":358,"BSTAR":-0.0020431,"MEAN_MOTION_DOT":-0.0003059,"MEAN_MOTION_DDOT":0},{"OBJECT_NAME":"STARLINK-2693","OBJECT_ID":"2021-040AK","EPOCH":"2021-09-10T22:00:00.999936","MEAN_MOTION":15.06407751,"ECCENTRICITY":8.63e-5,"INCLINATION":53.0554,"RA_OF_ASC_NODE":352.3232,"ARG_OF_PERICENTER":117.2218,"MEAN_ANOMALY":284.1956,"EPHEMERIS_TYPE":0,"CLASSIFICATION_TYPE":"U","NORAD_CAT_ID":48461,"ELEMENT_SET_NO":999,"REV_AT_EPOCH":356,"BSTAR":-0.0033993,"MEAN_MOTION_DOT":-0.00050565,"MEAN_MOTION_DDOT":0},{"OBJECT_NAME":"STARLINK-2683","OBJECT_ID":"2021-040AL","EPOCH":"2021-09-10T22:00:00.999936","MEAN_MOTION":15.0642472,"ECCENTRICITY":0.0001128,"INCLINATION":53.0433,"RA_OF_ASC_NODE":357.3759,"ARG_OF_PERICENTER":145.7905,"MEAN_ANOMALY":133.251,"EPHEMERIS_TYPE":0,"CLASSIFICATION_TYPE":"U","NORAD_CAT_ID":48462,"ELEMENT_SET_NO":999,"REV_AT_EPOCH":356,"BSTAR":-0.0025744,"MEAN_MOTION_DOT":-0.00038446,"MEAN_MOTION_DDOT":0},{"OBJECT_NAME":"STARLINK-2689","OBJECT_ID":"2021-040AM","EPOCH":"2021-09-10T22:00:00.999936","MEAN_MOTION":15.06417945,"ECCENTRICITY":0.0001039,"INCLINATION":53.0563,"RA_OF_ASC_NODE":357.3274,"ARG_OF_PERICENTER":120.1763,"MEAN_ANOMALY":338.8559,"EPHEMERIS_TYPE":0,"CLASSIFICATION_TYPE":"U","NORAD_CAT_ID":48463,"ELEMENT_SET_NO":999,"REV_AT_EPOCH":356,"BSTAR":-0.0018445,"MEAN_MOTION_DOT":-0.00027662,"MEAN_MOTION_DDOT":0},{"OBJECT_NAME":"STARLINK-2686","OBJECT_ID":"2021-040AN","EPOCH":"2021-09-11T06:00:00.999648","MEAN_MOTION":15.06392247,"ECCENTRICITY":0.0001435,"INCLINATION":53.0556,"RA_OF_ASC_NODE":355.8301,"ARG_OF_PERICENTER":153.2447,"MEAN_ANOMALY":69.3339,"EPHEMERIS_TYPE":0,"CLASSIFICATION_TYPE":"U","NORAD_CAT_ID":48464,"ELEMENT_SET_NO":999,"REV_AT_EPOCH":2052,"BSTAR":0.0018771,"MEAN_MOTION_DOT":0.00027783,"MEAN_MOTION_DDOT":0},{"OBJECT_NAME":"STARLINK-2681","OBJECT_ID":"2021-040AP","EPOCH":"2021-09-10T22:00:00.999936","MEAN_MOTION":15.06410137,"ECCENTRICITY":0.0001245,"INCLINATION":53.0544,"RA_OF_ASC_NODE":357.3206,"ARG_OF_PERICENTER":126.6409,"MEAN_ANOMALY":27.2526,"EPHEMERIS_TYPE":0,"CLASSIFICATION_TYPE":"U","NORAD_CAT_ID":48465,"ELEMENT_SET_NO":999,"REV_AT_EPOCH":356,"BSTAR":-0.0018477,"MEAN_MOTION_DOT":-0.00027704,"MEAN_MOTION_DDOT":0},{"OBJECT_NAME":"STARLINK-2687","OBJECT_ID":"2021-040AQ","EPOCH":"2021-09-10T22:00:00.999936","MEAN_MOTION":15.06416138,"ECCENTRICITY":0.0001153,"INCLINATION":53.0672,"RA_OF_ASC_NODE":357.2794,"ARG_OF_PERICENTER":145.2914,"MEAN_ANOMALY":88.5955,"EPHEMERIS_TYPE":0,"CLASSIFICATION_TYPE":"U","NORAD_CAT_ID":48466,"ELEMENT_SET_NO":999,"REV_AT_EPOCH":356,"BSTAR":-0.0021171,"MEAN_MOTION_DOT":-0.00031689,"MEAN_MOTION_DDOT":0},{"OBJECT_NAME":"STARLINK-2659","OBJECT_ID":"2021-040AR","EPOCH":"2021-09-10T22:00:00.999936","MEAN_MOTION":15.0641017,"ECCENTRICITY":0.0001144,"INCLINATION":53.0561,"RA_OF_ASC_NODE":357.3267,"ARG_OF_PERICENTER":117.6727,"MEAN_ANOMALY":336.1674,"EPHEMERIS_TYPE":0,"CLASSIFICATION_TYPE":"U","NORAD_CAT_ID":48467,"ELEMENT_SET_NO":999,"REV_AT_EPOCH":358,"BSTAR":-0.0018917,"MEAN_MOTION_DOT":-0.00028354,"MEAN_MOTION_DDOT":0},{"OBJECT_NAME":"STARLINK-2685","OBJECT_ID":"2021-040AS","EPOCH":"2021-09-10T22:00:00.999936","MEAN_MOTION":15.06409877,"ECCENTRICITY":9.07e-5,"INCLINATION":53.0548,"RA_OF_ASC_NODE":357.3232,"ARG_OF_PERICENTER":127.717,"MEAN_ANOMALY":66.096,"EPHEMERIS_TYPE":0,"CLASSIFICATION_TYPE":"U","NORAD_CAT_ID":48468,"ELEMENT_SET_NO":999,"REV_AT_EPOCH":356,"BSTAR":-0.0019534,"MEAN_MOTION_DOT":-0.00029265,"MEAN_MOTION_DDOT":0},{"OBJECT_NAME":"STARLINK-2661","OBJECT_ID":"2021-040AT","EPOCH":"2021-09-10T22:00:00.999936","MEAN_MOTION":15.06419008,"ECCENTRICITY":9.07e-5,"INCLINATION":53.0567,"RA_OF_ASC_NODE":357.3305,"ARG_OF_PERICENTER":126.4495,"MEAN_ANOMALY":347.456,"EPHEMERIS_TYPE":0,"CLASSIFICATION_TYPE":"U","NORAD_CAT_ID":48469,"ELEMENT_SET_NO":999,"REV_AT_EPOCH":365,"BSTAR":-0.0018034,"MEAN_MOTION_DOT":-0.00027055,"MEAN_MOTION_DDOT":0},{"OBJECT_NAME":"STARLINK-2675","OBJECT_ID":"2021-040AU","EPOCH":"2021-09-10T22:00:00.999936","MEAN_MOTION":15.06403761,"ECCENTRICITY":8.14e-5,"INCLINATION":53.0554,"RA_OF_ASC_NODE":357.3249,"ARG_OF_PERICENTER":143.1119,"MEAN_ANOMALY":350.7923,"EPHEMERIS_TYPE":0,"CLASSIFICATION_TYPE":"U","NORAD_CAT_ID":48470,"ELEMENT_SET_NO":999,"REV_AT_EPOCH":356,"BSTAR":-0.0018424,"MEAN_MOTION_DOT":-0.0002762,"MEAN_MOTION_DDOT":0},{"OBJECT_NAME":"STARLINK-2684","OBJECT_ID":"2021-040AV","EPOCH":"2021-09-10T22:00:00.999936","MEAN_MOTION":15.06403661,"ECCENTRICITY":0.000111,"INCLINATION":53.0557,"RA_OF_ASC_NODE":357.3296,"ARG_OF_PERICENTER":118.4759,"MEAN_ANOMALY":55.4246,"EPHEMERIS_TYPE":0,"CLASSIFICATION_TYPE":"U","NORAD_CAT_ID":48471,"ELEMENT_SET_NO":999,"REV_AT_EPOCH":356,"BSTAR":-0.0019691,"MEAN_MOTION_DOT":-0.00029493,"MEAN_MOTION_DDOT":0},{"OBJECT_NAME":"STARLINK-2722","OBJECT_ID":"2021-040AW","EPOCH":"2021-09-10T22:00:00.999936","MEAN_MOTION":15.06413745,"ECCENTRICITY":0.0001261,"INCLINATION":53.0421,"RA_OF_ASC_NODE":357.3783,"ARG_OF_PERICENTER":122.2143,"MEAN_ANOMALY":151.7539,"EPHEMERIS_TYPE":0,"CLASSIFICATION_TYPE":"U","NORAD_CAT_ID":48472,"ELEMENT_SET_NO":999,"REV_AT_EPOCH":357,"BSTAR":-0.0047335,"MEAN_MOTION_DOT":-0.00070122,"MEAN_MOTION_DDOT":0}]
